0 THOR ABLESTAR DEB
1 00329U 61015DF  13281.05848736  .00000167  00000-0  28241-3 0  9155
2 00329 066.7814 064.1371 0118037 199.1654 265.6794 13.64660138597722
0 THOR ABLESTAR DEB
1 00329U 61015DF  13283.38869183  .00000146  00000-0  25809-3 0  9167
2 00329 066.7818 058.6884 0117882 197.6663 193.4056 13.64662118598048
0 THOR ABLESTAR DEB
1 00329U 61015DF  13285.44680066  .00000111  00000-0  21669-3 0  9170
2 00329 066.7823 053.8763 0117750 196.3500 224.3966 13.64663162598322
0 THOR ABLESTAR DEB
1 00329U 61015DF  13287.50252681  .00000143  00000-0  25457-3 0  9182
2 00329 066.7827 049.0701 0117613 195.0307 243.6958 13.64663989598607
0 THOR ABLESTAR DEB
1 00329U 61015DF  13290.27531740  .00000186  00000-0  30583-3 0  9190
2 00329 066.7829 042.5875 0117393 193.2270 185.8000 13.64665596598985
0 THOR ABLESTAR DEB
1 00329U 61015DF  13292.48890979  .00000174  00000-0  29136-3 0  9208
2 00329 066.7829 037.4123 0117198 191.7954 260.6899 13.64666799599287
0 THOR ABLESTAR DEB
1 00329U 61015DF  13294.70010304  .00000179  00000-0  29760-3 0  9210
2 00329 066.7829 032.2426 0117017 190.3559 323.8126 13.64668268599583
